[{"OBJECT_NAME":"STARLINK-30361","OBJECT_ID":"2023-131M","EPOCH":"2026-03-09T22:00:01.999584","MEAN_MOTION":15.12419132,"ECCENTRICITY":0.0001562,"INCLINATION":42.9992,"RA_OF_ASC_NODE":170.2609,"ARG_OF_PERICENTER":271.7692,"MEAN_ANOMALY":21.2571,"EPHEMERIS_TYPE":0,"CLASSIFICATION_TYPE":"U","NORAD_CAT_ID":57743,"ELEMENT_SET_NO":999,"REV_AT_EPOCH":578,"BSTAR":0.070351527,"MEAN_MOTION_DOT":0.01353414,"MEAN_MOTION_DDOT":0},{"OBJECT_NAME":"TRANSPORTER-1 OBJECT Z","OBJECT_ID":"2021-006Z","EPOCH":"2026-03-09T22:55:57.522432","MEAN_MOTION":15.30965056,"ECCENTRICITY":0.00100878,"INCLINATION":97.2377,"RA_OF_ASC_NODE":113.4736,"ARG_OF_PERICENTER":179.6869,"MEAN_ANOMALY":180.438,"EPHEMERIS_TYPE":0,"CLASSIFICATION_TYPE":"U","NORAD_CAT_ID":47436,"ELEMENT_SET_NO":999,"REV_AT_EPOCH":28420,"BSTAR":0.00024088983,"MEAN_MOTION_DOT":7.143e-5,"MEAN_MOTION_DDOT":0}]
